STARLINK-1169           
1 45061U 20006T   26054.22508906 -.00000538  00000+0 -60266-5 0  9995
2 45061  53.1601 348.1816 0001236  88.6103 271.5039 15.30193864334336
STARLINK-1171           
1 45062U 20006U   26054.45726021  .00091504  00000+0  13483-2 0  9998
2 45062  53.0466 318.4406 0002068 351.6698   8.4277 15.54672482334779
STARLINK-1133           
1 45064U 20006W   26054.16555507  .00007565  00000+0  26706-3 0  9994
2 45064  53.1582 325.2638 0001267  91.0987 269.0159 15.30226869334659
STARLINK-1167           
1 45071U 20006AD  26054.44694776  .00001265  00000+0  56181-4 0  9997
2 45071  53.1593 323.9240 0001432  80.4727 279.6436 15.29353814334699
STARLINK-1168           
1 45072U 20006AE  26054.71815272 -.00004361  00000+0 -13879-3 0  9992
2 45072  53.1586 322.7288 0001625  91.7223 268.3963 15.29372089334731
STARLINK-1172           
1 45074U 20006AG  26054.73022416  .00000450  00000+0  27344-4 0  9992
2 45074  53.1605 322.6645 0001342  94.4886 265.6268 15.30189649334730
STARLINK-1153           
1 45080U 20006AN  26054.03925293  .00000571  00000+0  32129-4 0  9998
2 45080  53.1607 325.7333 0001325  99.6937 260.4213 15.29365349334635
STARLINK-1151           
1 45081U 20006AP  26054.68378858  .00052388  00000+0  72929-3 0  9993
2 45081  53.0513 308.1732 0011927 100.1007 260.1349 15.56381544334939
STARLINK-1185           
1 45087U 20006AV  26054.91667824 -.00005689  00000+0 -18497-3 0  9993
2 45087  53.1542 306.3361 0001708  98.1430 201.6950 15.29353163  5634
STARLINK-1183           
1 45088U 20006AW  26054.71004686  .00018936  00000+0  66574-3 0  9999
2 45088  53.1563 307.5126 0001564  70.1267 289.9902 15.29410220334941
STARLINK-1152           
1 45096U 20006BE  26054.62182936  .00048337  00000+0  13394-2 0  9992
2 45096  53.0392 272.7384 0006824 142.6972 217.4505 15.36486807335421
STARLINK-1184           
1 45098U 20006BG  26054.69991234  .00024457  00000+0  15093-2 0  9995
2 45098  53.0530 308.5694 0006388  97.1582 263.0135 15.09783337334923
STARLINK-1193           
1 45100U 20006BJ  26054.68526367  .00055276  00000+0  98452-3 0  9993
2 45100  53.0521 297.9293 0004665 152.2283 207.8975 15.49596526335071
ONEWEB-0013             
1 45131U 20008A   26054.77589788 -.00000709  00000+0 -20958-2 0  9993
2 45131  87.8438  75.7270 0001165  64.9177 295.2071 13.09449110291223
ONEWEB-0017             
1 45132U 20008B   26054.76156471  .00000612  00000+0  17167-2 0  9991
2 45132  87.8760  58.8627 0001996  95.3628 264.7727 13.10373225293092
ONEWEB-0020             
1 45133U 20008C   26054.73166314 -.00000597  00000+0 -17455-2 0  9990
2 45133  87.8761  58.8591 0001869  89.3523 270.7818 13.10372822293483
ONEWEB-0021             
1 45134U 20008D   26054.74660852  .00000077  00000+0  18396-3 0  9995
2 45134  87.8757  58.8809 0001766  89.8645 270.2685 13.10375380293790
ONEWEB-0023             
1 45136U 20008F   26054.75741162  .00000552  00000+0  15438-2 0  9993
2 45136  87.8753  58.8583 0001741  84.7162 275.4164 13.10374577293222
ONEWEB-0024             
1 45137U 20008G   26054.73004750 -.00011703  00000+0 -33634-1 0  9996
2 45137  87.8784  58.8481 0002671  95.7113 264.4319 13.10314322293384
ONEWEB-0025             
1 45138U 20008H   26054.74302498 -.00000145  00000+0 -44872-3 0  9994
2 45138  87.8764  58.8398 0001582  84.4454 275.6854 13.10876992293714
ONEWEB-0026             
1 45139U 20008J   26054.70526211 -.00000034  00000+0 -13199-3 0  9997
2 45139  87.8840  43.6337 0001987  89.0453 271.0902 13.11418558296239
ONEWEB-0028             
1 45140U 20008K   26054.35684028  .00000185  00000+0  48717-3 0  9990
2 45140  87.8832  43.7137 0001413  69.0859 291.0421 13.11416149293704
ONEWEB-0032             
1 45141U 20008L   26054.76322418  .00000668  00000+0  18762-2 0  9990
2 45141  87.8757  58.8633 0001761  84.8293 275.3035 13.10372887293448
ONEWEB-0033             
1 45142U 20008M   26054.73830858 -.00000374  00000+0 -11067-2 0  9997
2 45142  87.8754  58.8782 0002225 100.4906 259.6472 13.10375493293359
ONEWEB-0035             
1 45143U 20008N   26054.76903289  .00000656  00000+0  18419-2 0  9999
2 45143  87.8752  58.8712 0001920  92.3924 267.7423 13.10372087293083
ONEWEB-0036             
1 45144U 20008P   26054.76310814  .00000720  00000+0  20440-2 0  9995
2 45144  87.8766  58.8391 0001784  81.1487 278.9842 13.09815706293515
ONEWEB-0038             
1 45145U 20008Q   26054.71558770  .00000457  00000+0  12526-2 0  9999
2 45145  87.8841  43.6315 0001353 148.6897 211.4312 13.11418203295457
ONEWEB-0039             
1 45146U 20008R   26054.74162800 -.00000197  00000+0 -60059-3 0  9996
2 45146  87.8768  58.8593 0001430  76.6706 283.4581 13.10375886293304
ONEWEB-0040             
1 45147U 20008S   26054.73498698 -.00000477  00000+0 -14040-2 0  9992
2 45147  87.8755  58.8784 0001760  90.9453 269.1876 13.10374721293009
ONEWEB-0043             
1 45149U 20008U   26054.43121413 -.00000308  00000+0 -91792-3 0  9992
2 45149  87.8760  58.9217 0001453  73.5661 286.5626 13.10376124293281
ONEWEB-0044             
1 45150U 20008V   26054.76487964  .00000703  00000+0  19769-2 0  9996
2 45150  87.8765  58.8501 0001676  88.1905 271.9414 13.10372161293621
ONEWEB-0045             
1 45151U 20008W   26054.71034832  .00000152  00000+0  39304-3 0  9990
2 45151  87.8845  43.6193 0001741  85.7122 274.4204 13.11417254295538
ONEWEB-0047             
1 45152U 20008X   26054.75823447  .00000593  00000+0  16616-2 0  9992
2 45152  87.8759  58.8549 0001848  90.2215 269.9124 13.10376215293345
ONEWEB-0048             
1 45153U 20008Y   26054.75324083  .00000400  00000+0  11092-2 0  9995
2 45153  87.8756  58.8837 0001852  91.2709 268.8630 13.10373639292950
ONEWEB-0049             
1 45154U 20008Z   26054.75643723  .00000450  00000+0  12531-2 0  9995
2 45154  87.8758  58.8709 0002062  76.8343 283.3015 13.10375534293178
ONEWEB-0051             
1 45155U 20008AA  26054.70865950  .00000159  00000+0  41140-3 0  9994
2 45155  87.8842  43.6331 0001838  86.2665 273.8673 13.11418757296216
ONEWEB-0052             
1 45156U 20008AB  26054.75206492  .00000398  00000+0  11106-2 0  9993
2 45156  87.8763  58.8403 0001988  74.9472 285.1875 13.09876725293085
ONEWEB-0053             
1 45157U 20008AC  26054.42789519 -.00000479  00000+0 -14099-2 0  9990
2 45157  87.8757  58.9458 0001662  74.2329 285.8982 13.10374492293018
ONEWEB-0054             
1 45158U 20008AD  26054.46277372  .00000646  00000+0  18149-2 0  9998
2 45158  87.8758  58.9124 0001913  87.4935 272.6411 13.10371147293136
ONEWEB-0056             
1 45159U 20008AE  26054.74910662  .00000191  00000+0  51026-3 0  9993
2 45159  87.8764  58.8551 0002016  85.2991 274.8367 13.10376041293323
ONEWEB-0057             
1 45160U 20008AF  26054.75672232  .00000503  00000+0  14035-2 0  9999
2 45160  87.8758  58.8637 0001780  81.3633 278.7696 13.10373838293497
ONEWEB-0058             
1 45161U 20008AG  26054.74342965 -.00000106  00000+0 -33977-3 0  9994
2 45161  87.8758  58.8759 0001898  97.1716 262.9627 13.10375298293569
ONEWEB-0059             
1 45162U 20008AH  26054.43453639 -.00000110  00000+0 -35122-3 0  9991
2 45162  87.8754  58.9380 0001790  92.3617 267.7716 13.10375913293426
ONEWEB-0062             
1 45163U 20008AJ  26054.76571598  .00000630  00000+0  17671-2 0  9996
2 45163  87.8764  58.8529 0002021 102.1362 257.9992 13.10372154293338
ONEWEB-0065             
1 45164U 20008AK  26054.71990786 -.00000517  00000+0 -15180-2 0  9995
2 45164  87.8751  58.8723 0001919  78.2112 281.9231 13.10371348293025
STARLINK-1143           
1 45179U 20012B   26054.91667824  .00173390  00000+0  21597-2 0  9999
2 45179  53.0481  37.0939 0005692  38.6704 256.2542 15.58837232  5960
STARLINK-1202           
1 45183U 20012F   26054.51519845  .00000857  00000+0  41070-4 0  9996
2 45183  53.1602 105.0895 0001418 103.2875 256.8284 15.30196311332786
STARLINK-1216           
1 45185U 20012H   26054.44039891 -.00000126  00000+0  78675-5 0  9990
2 45185  53.1604 105.4178 0001289 122.4795 237.6330 15.30202190332713
STARLINK-1225           
1 45187U 20012K   26054.82919669  .00000511  00000+0  29377-4 0  9995
2 45187  53.1574 104.0506 0001172  87.9540 272.1595 15.30196841332818
STARLINK-1230           
1 45189U 20012M   26054.57744258  .00002389  00000+0  92785-4 0  9997
2 45189  53.1606 105.2806 0001410  86.7851 273.3311 15.30191010330000
STARLINK-1234           
1 45190U 20012N   26054.24086336  .00085835  00000+0  10931-2 0  9997
2 45190  53.0455  35.7345 0004798 289.5304  70.5189 15.58620945333621
STARLINK-1269           
1 45197U 20012V   26054.83551217  .00000189  00000+0  18530-4 0  9998
2 45197  53.1633 103.9379 0001677  84.2236 275.8956 15.30190517332795
STARLINK-1154           
1 45198U 20012W   26054.77586064  .00055650  00000+0  12147-2 0  9999
2 45198  53.0501  76.2488 0007278  32.1724 327.9724 15.43672056333148
STARLINK-1199           
1 45201U 20012Z   26054.91667824  .00930281  00000+0  33179-1 0  9993
2 45201  53.1400  87.7124 0001241  83.3115 228.4292 15.25861138  5830
STARLINK-1209           
1 45206U 20012AE  26054.67942846  .00094493  00000+0  17497-2 0  9993
2 45206  53.0491  40.6368 0005995 246.9241 113.1135 15.48241062332741
STARLINK-1210           
1 45207U 20012AF  26054.87575411  .00557522  16836-3  62385-3 0  9998
2 45207  53.0086 330.6552 0002694 168.0120 192.0978 16.08838103334683
STARLINK-1231           
1 45212U 20012AL  26054.34931358  .00032771  00000+0  15226-2 0  9999
2 45212  53.0484  81.5743 0004077  24.1457 335.9728 15.19721786333046
STARLINK-1271           
1 45217U 20012AR  26054.91667824  .01412897  00000+0  52499-1 0  9995
2 45217  53.1323  87.8492 0000742  72.1582 244.6144 15.24224256  5726
STARLINK-1191           
1 45222U 20012AW  26054.75807321  .00004291  00000+0  15305-3 0  9992
2 45222  53.1608  63.5442 0001363  89.7115 270.4042 15.31029775333387
